[{"OBJECT_NAME":"INMARSAT GX5","OBJECT_ID":"2019-080B","EPOCH":"2026-04-05T05:28:38.784288","MEAN_MOTION":1.00273212,"ECCENTRICITY":0.00020183,"INCLINATION":0.0612,"RA_OF_ASC_NODE":38.6391,"ARG_OF_PERICENTER":351.8073,"MEAN_ANOMALY":256.2462,"EPHEMERIS_TYPE":0,"CLASSIFICATION_TYPE":"U","NORAD_CAT_ID":44801,"ELEMENT_SET_NO":999,"REV_AT_EPOCH":605,"BSTAR":0,"MEAN_MOTION_DOT":7.6e-7,"MEAN_MOTION_DDOT":0},{"OBJECT_NAME":"JCSAT-18 (KACIFIC 1)","OBJECT_ID":"2019-091A","EPOCH":"2026-04-05T05:19:38.459424","MEAN_MOTION":1.00271098,"ECCENTRICITY":3.442e-5,"INCLINATION":0.0396,"RA_OF_ASC_NODE":355.2927,"ARG_OF_PERICENTER":82.3218,"MEAN_ANOMALY":345.8206,"EPHEMERIS_TYPE":0,"CLASSIFICATION_TYPE":"U","NORAD_CAT_ID":44868,"ELEMENT_SET_NO":999,"REV_AT_EPOCH":2327,"BSTAR":0,"MEAN_MOTION_DOT":-2.0e-6,"MEAN_MOTION_DDOT":0},{"OBJECT_NAME":"ELEKTRO-L 3","OBJECT_ID":"2019-095A","EPOCH":"2026-04-04T23:24:55.714176","MEAN_MOTION":1.00272372,"ECCENTRICITY":0.0001391,"INCLINATION":0.0753,"RA_OF_ASC_NODE":61.4371,"ARG_OF_PERICENTER":306.4789,"MEAN_ANOMALY":252.5355,"EPHEMERIS_TYPE":0,"CLASSIFICATION_TYPE":"U","NORAD_CAT_ID":44903,"ELEMENT_SET_NO":999,"REV_AT_EPOCH":2297,"BSTAR":0,"MEAN_MOTION_DOT":-9.5e-7,"MEAN_MOTION_DDOT":0},{"OBJECT_NAME":"SHIJIAN-20 (SJ-20)","OBJECT_ID":"2019-097A","EPOCH":"2026-04-04T18:50:20.453280","MEAN_MOTION":1.00087812,"ECCENTRICITY":0.0002999,"INCLINATION":4.7304,"RA_OF_ASC_NODE":75.9451,"ARG_OF_PERICENTER":16.0876,"MEAN_ANOMALY":78.4415,"EPHEMERIS_TYPE":0,"CLASSIFICATION_TYPE":"U","NORAD_CAT_ID":44910,"ELEMENT_SET_NO":999,"REV_AT_EPOCH":2296,"BSTAR":0,"MEAN_MOTION_DOT":1.1e-6,"MEAN_MOTION_DDOT":0},{"OBJECT_NAME":"TJS-5","OBJECT_ID":"2020-002A","EPOCH":"2026-04-04T20:08:36.377952","MEAN_MOTION":1.00270451,"ECCENTRICITY":0.0005511,"INCLINATION":0.1984,"RA_OF_ASC_NODE":269.7875,"ARG_OF_PERICENTER":124.4959,"MEAN_ANOMALY":208.5315,"EPHEMERIS_TYPE":0,"CLASSIFICATION_TYPE":"U","NORAD_CAT_ID":44978,"ELEMENT_SET_NO":999,"REV_AT_EPOCH":2296,"BSTAR":0,"MEAN_MOTION_DOT":-3.42e-6,"MEAN_MOTION_DDOT":0},{"OBJECT_NAME":"GSAT-30","OBJECT_ID":"2020-005A","EPOCH":"2026-04-05T02:52:20.267328","MEAN_MOTION":1.00272565,"ECCENTRICITY":0.00021248,"INCLINATION":0.0724,"RA_OF_ASC_NODE":82.6022,"ARG_OF_PERICENTER":348.1205,"MEAN_ANOMALY":248.7748,"EPHEMERIS_TYPE":0,"CLASSIFICATION_TYPE":"U","NORAD_CAT_ID":45026,"ELEMENT_SET_NO":999,"REV_AT_EPOCH":2277,"BSTAR":0,"MEAN_MOTION_DOT":-1.64e-6,"MEAN_MOTION_DDOT":0},{"OBJECT_NAME":"EUTELSAT KONNECT","OBJECT_ID":"2020-005B","EPOCH":"2026-04-05T05:28:38.784288","MEAN_MOTION":1.00272881,"ECCENTRICITY":0.00012443,"INCLINATION":0.0696,"RA_OF_ASC_NODE":94.0317,"ARG_OF_PERICENTER":221.875,"MEAN_ANOMALY":327.003,"EPHEMERIS_TYPE":0,"CLASSIFICATION_TYPE":"U","NORAD_CAT_ID":45027,"ELEMENT_SET_NO":999,"REV_AT_EPOCH":2360,"BSTAR":0,"MEAN_MOTION_DOT":5.1e-7,"MEAN_MOTION_DDOT":0},{"OBJECT_NAME":"JCSAT-17","OBJECT_ID":"2020-013A","EPOCH":"2026-04-05T06:27:51.751008","MEAN_MOTION":1.00272261,"ECCENTRICITY":0.00044296,"INCLINATION":5.3944,"RA_OF_ASC_NODE":356.1523,"ARG_OF_PERICENTER":16.5272,"MEAN_ANOMALY":53.8398,"EPHEMERIS_TYPE":0,"CLASSIFICATION_TYPE":"U","NORAD_CAT_ID":45245,"ELEMENT_SET_NO":999,"REV_AT_EPOCH":2250,"BSTAR":0,"MEAN_MOTION_DOT":-3.17e-6,"MEAN_MOTION_DDOT":0},{"OBJECT_NAME":"GEO-KOMPSAT-2B","OBJECT_ID":"2020-013B","EPOCH":"2026-04-05T05:23:38.711040","MEAN_MOTION":1.00273209,"ECCENTRICITY":0.0001221,"INCLINATION":0.0441,"RA_OF_ASC_NODE":345.1815,"ARG_OF_PERICENTER":354.3552,"MEAN_ANOMALY":63.1591,"EPHEMERIS_TYPE":0,"CLASSIFICATION_TYPE":"U","NORAD_CAT_ID":45246,"ELEMENT_SET_NO":999,"REV_AT_EPOCH":2254,"BSTAR":0,"MEAN_MOTION_DOT":-3.43e-6,"MEAN_MOTION_DDOT":0},{"OBJECT_NAME":"BEIDOU-3 G2","OBJECT_ID":"2020-017A","EPOCH":"2026-04-05T02:57:21.746304","MEAN_MOTION":1.00272116,"ECCENTRICITY":0.00028459,"INCLINATION":2.7181,"RA_OF_ASC_NODE":46.1506,"ARG_OF_PERICENTER":336.9903,"MEAN_ANOMALY":294.6728,"EPHEMERIS_TYPE":0,"CLASSIFICATION_TYPE":"U","NORAD_CAT_ID":45344,"ELEMENT_SET_NO":999,"REV_AT_EPOCH":2252,"BSTAR":0,"MEAN_MOTION_DOT":-1.38e-6,"MEAN_MOTION_DDOT":0},{"OBJECT_NAME":"BEIDOU-3 G3","OBJECT_ID":"2020-040A","EPOCH":"2026-04-05T06:25:29.566848","MEAN_MOTION":1.00269679,"ECCENTRICITY":0.000458,"INCLINATION":2.2687,"RA_OF_ASC_NODE":67.227,"ARG_OF_PERICENTER":328.5008,"MEAN_ANOMALY":4.7695,"EPHEMERIS_TYPE":0,"CLASSIFICATION_TYPE":"U","NORAD_CAT_ID":45807,"ELEMENT_SET_NO":999,"REV_AT_EPOCH":2133,"BSTAR":0,"MEAN_MOTION_DOT":-3.51e-6,"MEAN_MOTION_DDOT":0},{"OBJECT_NAME":"APSTAR-6D","OBJECT_ID":"2020-045A","EPOCH":"2026-04-03T11:45:16.021728","MEAN_MOTION":1.00266278,"ECCENTRICITY":0.00026609,"INCLINATION":0.047,"RA_OF_ASC_NODE":103.0436,"ARG_OF_PERICENTER":345.0952,"MEAN_ANOMALY":53.9599,"EPHEMERIS_TYPE":0,"CLASSIFICATION_TYPE":"U","NORAD_CAT_ID":45863,"ELEMENT_SET_NO":999,"REV_AT_EPOCH":2111,"BSTAR":0,"MEAN_MOTION_DOT":-3.21e-6,"MEAN_MOTION_DDOT":0},{"OBJECT_NAME":"KOREASAT 116","OBJECT_ID":"2020-048A","EPOCH":"2026-04-05T01:19:06.708000","MEAN_MOTION":1.00268559,"ECCENTRICITY":0.00011967,"INCLINATION":0.0115,"RA_OF_ASC_NODE":198.2605,"ARG_OF_PERICENTER":207.8107,"MEAN_ANOMALY":283.2843,"EPHEMERIS_TYPE":0,"CLASSIFICATION_TYPE":"U","NORAD_CAT_ID":45920,"ELEMENT_SET_NO":999,"REV_AT_EPOCH":2090,"BSTAR":0,"MEAN_MOTION_DOT":0,"MEAN_MOTION_DDOT":0},{"OBJECT_NAME":"EXPRESS 103","OBJECT_ID":"2020-053A","EPOCH":"2026-04-02T01:02:21.793920","MEAN_MOTION":1.0027293,"ECCENTRICITY":8.494e-5,"INCLINATION":0.0224,"RA_OF_ASC_NODE":258.5231,"ARG_OF_PERICENTER":21.4282,"MEAN_ANOMALY":22.53,"EPHEMERIS_TYPE":0,"CLASSIFICATION_TYPE":"U","NORAD_CAT_ID":45985,"ELEMENT_SET_NO":999,"REV_AT_EPOCH":2088,"BSTAR":0,"MEAN_MOTION_DOT":-2.88e-6,"MEAN_MOTION_DDOT":0},{"OBJECT_NAME":"BSAT-4B","OBJECT_ID":"2020-056A","EPOCH":"2026-04-05T00:18:53.357184","MEAN_MOTION":1.00271287,"ECCENTRICITY":0.00026725,"INCLINATION":0.075,"RA_OF_ASC_NODE":110.2603,"ARG_OF_PERICENTER":336.7145,"MEAN_ANOMALY":220.9021,"EPHEMERIS_TYPE":0,"CLASSIFICATION_TYPE":"U","NORAD_CAT_ID":46112,"ELEMENT_SET_NO":999,"REV_AT_EPOCH":2065,"BSTAR":0,"MEAN_MOTION_DOT":-3.49e-6,"MEAN_MOTION_DDOT":0},{"OBJECT_NAME":"MEV-2","OBJECT_ID":"2020-056B","EPOCH":"2026-04-05T05:53:40.118208","MEAN_MOTION":1.0027232,"ECCENTRICITY":0.00019855,"INCLINATION":0.0402,"RA_OF_ASC_NODE":43.8323,"ARG_OF_PERICENTER":32.9198,"MEAN_ANOMALY":204.2058,"EPHEMERIS_TYPE":0,"CLASSIFICATION_TYPE":"U","NORAD_CAT_ID":46113,"ELEMENT_SET_NO":999,"REV_AT_EPOCH":7984,"BSTAR":0,"MEAN_MOTION_DOT":-1.0e-7,"MEAN_MOTION_DDOT":0},{"OBJECT_NAME":"GALAXY 30 (G-30)","OBJECT_ID":"2020-056C","EPOCH":"2026-04-04T22:27:32.891040","MEAN_MOTION":1.00272177,"ECCENTRICITY":0.00024578,"INCLINATION":0.0165,"RA_OF_ASC_NODE":201.4199,"ARG_OF_PERICENTER":199.6088,"MEAN_ANOMALY":4.1053,"EPHEMERIS_TYPE":0,"CLASSIFICATION_TYPE":"U","NORAD_CAT_ID":46114,"ELEMENT_SET_NO":999,"REV_AT_EPOCH":2055,"BSTAR":0,"MEAN_MOTION_DOT":0,"MEAN_MOTION_DDOT":0}]
